0 METEOR 2-5 DEB
1 36904U 79095AV  13279.79874426  .00009537  00000-0  17237-2 0  7647
2 36904 081.1950 102.8533 0013100 266.2786 093.6918 14.66288416449731
0 METEOR 2-5 DEB
1 36904U 79095AV  13283.21063496  .00015319  00000-0  27636-2 0  7656
2 36904 081.1956 099.1955 0013381 254.8845 105.0877 14.66360164450233
0 METEOR 2-5 DEB
1 36904U 79095AV  13283.75651306  .00018666  00000-0  33637-2 0  7665
2 36904 081.1957 098.6099 0013720 253.5134 106.4560 14.66392292450311
0 METEOR 2-5 DEB
1 36904U 79095AV  13285.80353343  .00012570  00000-0  22647-2 0  7671
2 36904 081.1946 096.4160 0013852 246.9915 112.9826 14.66423529450611
0 METEOR 2-5 DEB
1 36904U 79095AV  13287.78225575  .00020669  00000-0  37170-2 0  7681
2 36904 081.1948 094.2923 0013519 240.7995 119.1855 14.66476052450908
0 METEOR 2-5 DEB
1 36904U 79095AV  13289.14684329  .00018324  00000-0  32925-2 0  7698
2 36904 081.1949 092.8293 0013565 235.7169 124.2749 14.66524630451109
0 METEOR 2-5 DEB
1 36904U 79095AV  13291.19364778  .00017985  00000-0  32269-2 0  7704
2 36904 081.1960 090.6341 0013785 230.5327 129.4656 14.66589494451401
0 METEOR 2-5 DEB
1 36904U 79095AV  13293.71790890  .00021011  00000-0  37614-2 0  7717
2 36904 081.1968 087.9267 0013960 222.9887 137.0225 14.66672168451774
